STARLINK-36780          
1 67866U 26034S   26080.47844000  .00237392  00000+0  11703-2 0  9990
2 67866  53.1585 152.1348 0000887  53.9510 306.1595 15.80932771  5807
STARLINK-36761          
1 67867U 26034T   26080.47768782  .00207761  00000+0  10282-2 0  9991
2 67867  53.1589 152.1290 0001939  98.6453 261.4789 15.80931392  5805
STARLINK-36762          
1 67868U 26034U   26080.47693736  .00294377  00000+0  14442-2 0  9999
2 67868  53.1583 152.1242 0001513  87.0137 273.1059 15.80881472  5809
STARLINK-36779          
1 67869U 26034V   26080.47618878  .00178292  00000+0  88622-3 0  9993
2 67869  53.1598 152.1192 0001154 110.8806 249.2341 15.80924551  5803
STARLINK-36770          
1 67870U 26034W   26080.41146757  .00318554  00000+0  15589-2 0  9999
2 67870  53.1584 152.4249 0002104  25.6145 334.4982 15.80869910  5794
STARLINK-36769          
1 67871U 26034X   26080.47544243  .00426038  00000+0  20584-2 0  9996
2 67871  53.1588 152.1137 0001573  92.4524 267.6679 15.80861645  5803
STARLINK-36786          
1 67872U 26034Y   26080.47394172  .00461131  00000+0  22177-2 0  9994
2 67872  53.1583 152.1037 0002390 103.6719 256.4570 15.80869886  5808
STARLINK-36783          
1 67873U 26034Z   26080.47318789  .00157868  00000+0  78765-3 0  9999
2 67873  53.1594 152.0983 0001282  79.2345 280.8822 15.80905571  5805
STARLINK-36730          
1 67874U 26034AA  26080.47244153  .00418881  00000+0  20276-2 0  9991
2 67874  53.1582 152.0937 0002457  27.7343 332.3811 15.80840043  5806
STARLINK-36727          
1 67875U 26034AB  26080.47169108  .00481111  00000+0  23140-2 0  9997
2 67875  53.1579 152.0886 0001482  64.8273 295.2903 15.80814741  5802
STARLINK-36743          
1 67876U 26034AC  26080.47094130  .00578793  00000+0  27482-2 0  9996
2 67876  53.1583 152.0831 0001210  76.4849 283.6308 15.80838813  5801
STARLINK-36784          
1 67877U 26034AD  26080.50001157 -.01915615  00000+0 -19941-1 0  9999
2 67877  53.1589 152.0992 0001320  53.7572  33.8687 15.67005070  5754
STARLINK-36689          
1 67878U 26034AE  26080.53265374  .00250312  00000+0  12315-2 0  9998
2 67878  53.1577 151.7568 0001214 113.2559 246.8592 15.80939808  5814
STARLINK-36818          
1 67879U 26035A   26080.57813430  .00088444  00000+0  58574-3 0  9999
2 67879  97.2873  13.5439 0001368  86.5085 273.6336 15.75267762  5711
STARLINK-36821          
1 67880U 26035B   26080.57530791  .00490196  00000+0  30745-2 0  9997
2 67880  97.2865  13.5469 0001459 112.7079 247.4341 15.75399231  5715
STARLINK-36808          
1 67881U 26035C   26080.55135484  .00292178  00000+0  14725-2 0  9996
2 67881  97.2890  13.5772 0001876 135.0824 225.0596 15.80861108  5717
