[{"OBJECT_NAME":"STARLINK-36780","OBJECT_ID":"2026-034S","EPOCH":"2026-03-21T11:28:57.216000","MEAN_MOTION":15.80932771,"ECCENTRICITY":8.873e-5,"INCLINATION":53.1585,"RA_OF_ASC_NODE":152.1348,"ARG_OF_PERICENTER":53.951,"MEAN_ANOMALY":306.1595,"EPHEMERIS_TYPE":0,"CLASSIFICATION_TYPE":"U","NORAD_CAT_ID":67866,"ELEMENT_SET_NO":999,"REV_AT_EPOCH":580,"BSTAR":0.0011702803,"MEAN_MOTION_DOT":0.00237392,"MEAN_MOTION_DDOT":0},{"OBJECT_NAME":"STARLINK-36761","OBJECT_ID":"2026-034T","EPOCH":"2026-03-21T11:27:52.227648","MEAN_MOTION":15.80931392,"ECCENTRICITY":0.00019397,"INCLINATION":53.1589,"RA_OF_ASC_NODE":152.129,"ARG_OF_PERICENTER":98.6453,"MEAN_ANOMALY":261.4789,"EPHEMERIS_TYPE":0,"CLASSIFICATION_TYPE":"U","NORAD_CAT_ID":67867,"ELEMENT_SET_NO":999,"REV_AT_EPOCH":580,"BSTAR":0.0010282409,"MEAN_MOTION_DOT":0.00207761,"MEAN_MOTION_DDOT":0},{"OBJECT_NAME":"STARLINK-36762","OBJECT_ID":"2026-034U","EPOCH":"2026-03-21T11:26:47.387904","MEAN_MOTION":15.80881472,"ECCENTRICITY":0.00015134,"INCLINATION":53.1583,"RA_OF_ASC_NODE":152.1242,"ARG_OF_PERICENTER":87.0137,"MEAN_ANOMALY":273.1059,"EPHEMERIS_TYPE":0,"CLASSIFICATION_TYPE":"U","NORAD_CAT_ID":67868,"ELEMENT_SET_NO":999,"REV_AT_EPOCH":580,"BSTAR":0.001444163,"MEAN_MOTION_DOT":0.00294377,"MEAN_MOTION_DDOT":0},{"OBJECT_NAME":"STARLINK-36779","OBJECT_ID":"2026-034V","EPOCH":"2026-03-21T11:25:42.710592","MEAN_MOTION":15.80924551,"ECCENTRICITY":0.00011549,"INCLINATION":53.1598,"RA_OF_ASC_NODE":152.1192,"ARG_OF_PERICENTER":110.8806,"MEAN_ANOMALY":249.2341,"EPHEMERIS_TYPE":0,"CLASSIFICATION_TYPE":"U","NORAD_CAT_ID":67869,"ELEMENT_SET_NO":999,"REV_AT_EPOCH":580,"BSTAR":0.0008862173,"MEAN_MOTION_DOT":0.00178292,"MEAN_MOTION_DDOT":0},{"OBJECT_NAME":"STARLINK-36770","OBJECT_ID":"2026-034W","EPOCH":"2026-03-21T09:52:30.798048","MEAN_MOTION":15.8086991,"ECCENTRICITY":0.00021048,"INCLINATION":53.1584,"RA_OF_ASC_NODE":152.4249,"ARG_OF_PERICENTER":25.6145,"MEAN_ANOMALY":334.4982,"EPHEMERIS_TYPE":0,"CLASSIFICATION_TYPE":"U","NORAD_CAT_ID":67870,"ELEMENT_SET_NO":999,"REV_AT_EPOCH":579,"BSTAR":0.0015588935,"MEAN_MOTION_DOT":0.00318554,"MEAN_MOTION_DDOT":0},{"OBJECT_NAME":"STARLINK-36769","OBJECT_ID":"2026-034X","EPOCH":"2026-03-21T11:24:38.225952","MEAN_MOTION":15.80861645,"ECCENTRICITY":0.00015735,"INCLINATION":53.1588,"RA_OF_ASC_NODE":152.1137,"ARG_OF_PERICENTER":92.4524,"MEAN_ANOMALY":267.6679,"EPHEMERIS_TYPE":0,"CLASSIFICATION_TYPE":"U","NORAD_CAT_ID":67871,"ELEMENT_SET_NO":999,"REV_AT_EPOCH":580,"BSTAR":0.0020584227,"MEAN_MOTION_DOT":0.00426038,"MEAN_MOTION_DDOT":0},{"OBJECT_NAME":"STARLINK-36786","OBJECT_ID":"2026-034Y","EPOCH":"2026-03-21T11:22:28.564608","MEAN_MOTION":15.80869886,"ECCENTRICITY":0.00023902,"INCLINATION":53.1583,"RA_OF_ASC_NODE":152.1037,"ARG_OF_PERICENTER":103.6719,"MEAN_ANOMALY":256.457,"EPHEMERIS_TYPE":0,"CLASSIFICATION_TYPE":"U","NORAD_CAT_ID":67872,"ELEMENT_SET_NO":999,"REV_AT_EPOCH":580,"BSTAR":0.0022177445,"MEAN_MOTION_DOT":0.00461131,"MEAN_MOTION_DDOT":0},{"OBJECT_NAME":"STARLINK-36783","OBJECT_ID":"2026-034Z","EPOCH":"2026-03-21T11:21:23.433696","MEAN_MOTION":15.80905571,"ECCENTRICITY":0.00012828,"INCLINATION":53.1594,"RA_OF_ASC_NODE":152.0983,"ARG_OF_PERICENTER":79.2345,"MEAN_ANOMALY":280.8822,"EPHEMERIS_TYPE":0,"CLASSIFICATION_TYPE":"U","NORAD_CAT_ID":67873,"ELEMENT_SET_NO":999,"REV_AT_EPOCH":580,"BSTAR":0.00078765382,"MEAN_MOTION_DOT":0.00157868,"MEAN_MOTION_DDOT":0},{"OBJECT_NAME":"STARLINK-36730","OBJECT_ID":"2026-034AA","EPOCH":"2026-03-21T11:20:18.948192","MEAN_MOTION":15.80840043,"ECCENTRICITY":0.00024578,"INCLINATION":53.1582,"RA_OF_ASC_NODE":152.0937,"ARG_OF_PERICENTER":27.7343,"MEAN_ANOMALY":332.3811,"EPHEMERIS_TYPE":0,"CLASSIFICATION_TYPE":"U","NORAD_CAT_ID":67874,"ELEMENT_SET_NO":999,"REV_AT_EPOCH":580,"BSTAR":0.0020276333,"MEAN_MOTION_DOT":0.00418881,"MEAN_MOTION_DDOT":0},{"OBJECT_NAME":"STARLINK-36727","OBJECT_ID":"2026-034AB","EPOCH":"2026-03-21T11:19:14.109312","MEAN_MOTION":15.80814741,"ECCENTRICITY":0.00014823,"INCLINATION":53.1579,"RA_OF_ASC_NODE":152.0886,"ARG_OF_PERICENTER":64.8273,"MEAN_ANOMALY":295.2903,"EPHEMERIS_TYPE":0,"CLASSIFICATION_TYPE":"U","NORAD_CAT_ID":67875,"ELEMENT_SET_NO":999,"REV_AT_EPOCH":580,"BSTAR":0.0023140264,"MEAN_MOTION_DOT":0.00481111,"MEAN_MOTION_DDOT":0},{"OBJECT_NAME":"STARLINK-36743","OBJECT_ID":"2026-034AC","EPOCH":"2026-03-21T11:18:09.328320","MEAN_MOTION":15.80838813,"ECCENTRICITY":0.00012104,"INCLINATION":53.1583,"RA_OF_ASC_NODE":152.0831,"ARG_OF_PERICENTER":76.4849,"MEAN_ANOMALY":283.6308,"EPHEMERIS_TYPE":0,"CLASSIFICATION_TYPE":"U","NORAD_CAT_ID":67876,"ELEMENT_SET_NO":999,"REV_AT_EPOCH":580,"BSTAR":0.0027481877,"MEAN_MOTION_DOT":0.00578793,"MEAN_MOTION_DDOT":0},{"OBJECT_NAME":"STARLINK-36784","OBJECT_ID":"2026-034AD","EPOCH":"2026-03-21T12:00:00.999648","MEAN_MOTION":15.6700507,"ECCENTRICITY":0.00013205,"INCLINATION":53.1589,"RA_OF_ASC_NODE":152.0992,"ARG_OF_PERICENTER":53.7572,"MEAN_ANOMALY":33.8687,"EPHEMERIS_TYPE":0,"CLASSIFICATION_TYPE":"U","NORAD_CAT_ID":67877,"ELEMENT_SET_NO":999,"REV_AT_EPOCH":575,"BSTAR":-0.019940823,"MEAN_MOTION_DOT":-0.01915615,"MEAN_MOTION_DDOT":0},{"OBJECT_NAME":"STARLINK-36689","OBJECT_ID":"2026-034AE","EPOCH":"2026-03-21T12:47:01.283136","MEAN_MOTION":15.80939808,"ECCENTRICITY":0.00012148,"INCLINATION":53.1577,"RA_OF_ASC_NODE":151.7568,"ARG_OF_PERICENTER":113.2559,"MEAN_ANOMALY":246.8592,"EPHEMERIS_TYPE":0,"CLASSIFICATION_TYPE":"U","NORAD_CAT_ID":67878,"ELEMENT_SET_NO":999,"REV_AT_EPOCH":581,"BSTAR":0.0012315326,"MEAN_MOTION_DOT":0.00250312,"MEAN_MOTION_DDOT":0},{"OBJECT_NAME":"STARLINK-36818","OBJECT_ID":"2026-035A","EPOCH":"2026-03-21T13:52:30.803520","MEAN_MOTION":15.75267762,"ECCENTRICITY":0.00013684,"INCLINATION":97.2873,"RA_OF_ASC_NODE":13.5439,"ARG_OF_PERICENTER":86.5085,"MEAN_ANOMALY":273.6336,"EPHEMERIS_TYPE":0,"CLASSIFICATION_TYPE":"U","NORAD_CAT_ID":67879,"ELEMENT_SET_NO":999,"REV_AT_EPOCH":571,"BSTAR":0.00058574237,"MEAN_MOTION_DOT":0.00088444,"MEAN_MOTION_DDOT":0},{"OBJECT_NAME":"STARLINK-36821","OBJECT_ID":"2026-035B","EPOCH":"2026-03-21T13:48:26.603424","MEAN_MOTION":15.75399231,"ECCENTRICITY":0.00014594,"INCLINATION":97.2865,"RA_OF_ASC_NODE":13.5469,"ARG_OF_PERICENTER":112.7079,"MEAN_ANOMALY":247.4341,"EPHEMERIS_TYPE":0,"CLASSIFICATION_TYPE":"U","NORAD_CAT_ID":67880,"ELEMENT_SET_NO":999,"REV_AT_EPOCH":571,"BSTAR":0.0030744546,"MEAN_MOTION_DOT":0.00490196,"MEAN_MOTION_DDOT":0},{"OBJECT_NAME":"STARLINK-36808","OBJECT_ID":"2026-035C","EPOCH":"2026-03-21T13:13:57.058176","MEAN_MOTION":15.80861108,"ECCENTRICITY":0.00018767,"INCLINATION":97.289,"RA_OF_ASC_NODE":13.5772,"ARG_OF_PERICENTER":135.0824,"MEAN_ANOMALY":225.0596,"EPHEMERIS_TYPE":0,"CLASSIFICATION_TYPE":"U","NORAD_CAT_ID":67881,"ELEMENT_SET_NO":999,"REV_AT_EPOCH":571,"BSTAR":0.0014725473,"MEAN_MOTION_DOT":0.00292178,"MEAN_MOTION_DDOT":0}]
